{"type": "FeatureCollection", "features": [ {"type": "Feature", "properties": {"norad_id": 30596, "name": "FENGYUN 1C DEB", "group": "fengyun-1c-debris", "lat": -52.55998495381626, "lon": 151.52646241631697, "alt_km": 695.771564352729, "timestamp": "2025-12-10T21:43:22.365402+00:00", "meta": {"OBJECT_NAME": "FENGYUN 1C DEB", "OBJECT_ID": "1999-025AMB", "EPOCH": "2025-12-10T11:18:14.699808", "MEAN_MOTION": 14.34350246, "ECCENTRICITY": 0.02473742, "INCLINATION": 98.4133, "RA_OF_ASC_NODE": 342.2486, "ARG_OF_PERICENTER": 295.8781, "MEAN_ANOMALY": 219.5521, "EPHEMERIS_TYPE": 0, "CLASSIFICATION_TYPE": "U", "NORAD_CAT_ID": 30596, "ELEMENT_SET_NO": 999, "REV_AT_EPOCH": 98528, "BSTAR": 0.00064550729, "MEAN_MOTION_DOT": 2.508e-05, "MEAN_MOTION_DDOT": 0}, "tle": {"line1": "1 30596U 99025AMB 25344.47100347  .00002508  00000+0  64551-3 0  9990", "line2": "2 30596  98.4133 342.2486 0247374 295.8781 219.5521 14.34350246985288"}}, "geometry": {"type": "Point", "coordinates": [151.52646241631697, -52.55998495381626]}}, {"type": "Feature", "properties": {"norad_id": 30597, "name": "FENGYUN 1C DEB", "group": "fengyun-1c-debris", "lat": 81.04322427277377, "lon": -165.92612705850019, "alt_km": 578.2890451170597, "timestamp": "2025-12-10T21:43:22.365412+00:00", "meta": {"OBJECT_NAME": "FENGYUN 1C DEB", "OBJECT_ID": "1999-025AMC", "EPOCH": "2025-12-10T08:26:44.195424", "MEAN_MOTION": 14.92042283, "ECCENTRICITY": 0.00448252, "INCLINATION": 98.9391, "RA_OF_ASC_NODE": 280.4953, "ARG_OF_PERICENTER": 171.3148, "MEAN_ANOMALY": 188.8853, "EPHEMERIS_TYPE": 0, "CLASSIFICATION_TYPE": "U", "NORAD_CAT_ID": 30597, "ELEMENT_SET_NO": 999, "REV_AT_EPOCH": 98501, "BSTAR": 0.0075386722, "MEAN_MOTION_DOT": 0.00078746, "MEAN_MOTION_DDOT": 0}, "tle": {"line1": "1 30597U 99025AMC 25344.35190041  .00078746  00000+0  75387-2 0  9993", "line2": "2 30597  98.9391 280.4953 0044825 171.3148 188.8853 14.92042283985013"}}, "geometry": {"type": "Point", "coordinates": [-165.92612705850019, 81.04322427277377]}}, {"type": "Feature", "properties": {"norad_id": 30599, "name": "FENGYUN 1C DEB", "group": "fengyun-1c-debris", "lat": -66.32860239784921, "lon": 16.781182801447656, "alt_km": 713.1844559230685, "timestamp": "2025-12-10T21:43:22.365423+00:00", "meta": {"OBJECT_NAME": "FENGYUN 1C DEB", "OBJECT_ID": "1999-025AME", "EPOCH": "2025-12-10T00:02:13.325568", "MEAN_MOTION": 14.19668646, "ECCENTRICITY": 0.03025438, "INCLINATION": 98.6038, "RA_OF_ASC_NODE": 355.6974, "ARG_OF_PERICENTER": 352.7036, "MEAN_ANOMALY": 6.9786, "EPHEMERIS_TYPE": 0, "CLASSIFICATION_TYPE": "U", "NORAD_CAT_ID": 30599, "ELEMENT_SET_NO": 999, "REV_AT_EPOCH": 97128, "BSTAR": 0.0010662489, "MEAN_MOTION_DOT": 3.518e-05, "MEAN_MOTION_DDOT": 0}, "tle": {"line1": "1 30599U 99025AME 25344.00154312  .00003518  00000+0  10662-2 0  9998", "line2": "2 30599  98.6038 355.6974 0302543 352.7036   6.9786 14.19668646971288"}}, "geometry": {"type": "Point", "coordinates": [16.781182801447656, -66.32860239784921]}}, {"type": "Feature", "properties": {"norad_id": 30600, "name": "FENGYUN 1C DEB", "group": "fengyun-1c-debris", "lat": 61.89176226397245, "lon": 125.8181177084483, "alt_km": 1028.6708122499294, "timestamp": "2025-12-10T21:43:22.365433+00:00", "meta": {"OBJECT_NAME": "FENGYUN 1C DEB", "OBJECT_ID": "1999-025AMF", "EPOCH": "2025-12-10T07:29:24.124992", "MEAN_MOTION": 14.0742104, "ECCENTRICITY": 0.03281046, "INCLINATION": 98.3888, "RA_OF_ASC_NODE": 289.2291, "ARG_OF_PERICENTER": 254.3699, "MEAN_ANOMALY": 102.1043, "EPHEMERIS_TYPE": 0, "CLASSIFICATION_TYPE": "U", "NORAD_CAT_ID": 30600, "ELEMENT_SET_NO": 999, "REV_AT_EPOCH": 94398, "BSTAR": 0.0059171946, "MEAN_MOTION_DOT": 0.00016281, "MEAN_MOTION_DDOT": 0}, "tle": {"line1": "1 30600U 99025AMF 25344.31208478  .00016281  00000+0  59172-2 0  9998", "line2": "2 30600  98.3888 289.2291 0328104 254.3699 102.1043 14.07421040943981"}}, "geometry": {"type": "Point", "coordinates": [125.8181177084483, 61.89176226397245]}}, {"type": "Feature", "properties": {"norad_id": 30602, "name": "FENGYUN 1C DEB", "group": "fengyun-1c-debris", "lat": -59.55055574709144, "lon": -85.77580913657093, "alt_km": 609.6286588218727, "timestamp": "2025-12-10T21:43:22.365443+00:00", "meta": {"OBJECT_NAME": "FENGYUN 1C DEB", "OBJECT_ID": "1999-025AMH", "EPOCH": "2025-12-10T00:01:51.415392", "MEAN_MOTION": 14.90565685, "ECCENTRICITY": 0.00100425, "INCLINATION": 99.0327, "RA_OF_ASC_NODE": 257.4912, "ARG_OF_PERICENTER": 127.247, "MEAN_ANOMALY": 4.5783, "EPHEMERIS_TYPE": 0, "CLASSIFICATION_TYPE": "U", "NORAD_CAT_ID": 30602, "ELEMENT_SET_NO": 999, "REV_AT_EPOCH": 97764, "BSTAR": 0.01144769, "MEAN_MOTION_DOT": 0.00113809, "MEAN_MOTION_DDOT": 0}, "tle": {"line1": "1 30602U 99025AMH 25344.00128953  .00113809  00000+0  11448-1 0  9992", "line2": "2 30602  99.0327 257.4912 0010042 127.2470   4.5783 14.90565685977642"}}, "geometry": {"type": "Point", "coordinates": [-85.77580913657093, -59.55055574709144]}}, {"type": "Feature", "properties": {"norad_id": 30603, "name": "FENGYUN 1C DEB", "group": "fengyun-1c-debris", "lat": -45.32259833952702, "lon": 179.4072374038779, "alt_km": 826.4612917275035, "timestamp": "2025-12-10T21:43:22.365453+00:00", "meta": {"OBJECT_NAME": "FENGYUN 1C DEB", "OBJECT_ID": "1999-025AMJ", "EPOCH": "2025-12-09T01:23:06.463680", "MEAN_MOTION": 13.84103301, "ECCENTRICITY": 0.01832315, "INCLINATION": 98.4093, "RA_OF_ASC_NODE": 6.3559, "ARG_OF_PERICENTER": 215.4125, "MEAN_ANOMALY": 169.7324, "EPHEMERIS_TYPE": 0, "CLASSIFICATION_TYPE": "U", "NORAD_CAT_ID": 30603, "ELEMENT_SET_NO": 999, "REV_AT_EPOCH": 94825, "BSTAR": 0.0016776097, "MEAN_MOTION_DOT": 2.089e-05, "MEAN_MOTION_DDOT": 0}, "tle": {"line1": "1 30603U 99025AMJ 25343.05771370  .00002089  00000+0  16776-2 0  9991", "line2": "2 30603  98.4093   6.3559 0183231 215.4125 169.7324 13.84103301948257"}}, "geometry": {"type": "Point", "coordinates": [179.4072374038779, -45.32259833952702]}}, {"type": "Feature", "properties": {"norad_id": 30604, "name": "FENGYUN 1C DEB", "group": "fengyun-1c-debris", "lat": -10.429023736915884, "lon": 21.382144107467187, "alt_km": 677.6193956673733, "timestamp": "2025-12-10T21:43:22.365464+00:00", "meta": {"OBJECT_NAME": "FENGYUN 1C DEB", "OBJECT_ID": "1999-025AMK", "EPOCH": "2025-12-10T01:46:41.453760", "MEAN_MOTION": 14.23602779, "ECCENTRICITY": 0.0209855, "INCLINATION": 98.4026, "RA_OF_ASC_NODE": 19.0287, "ARG_OF_PERICENTER": 14.6644, "MEAN_ANOMALY": 39.254, "EPHEMERIS_TYPE": 0, "CLASSIFICATION_TYPE": "U", "NORAD_CAT_ID": 30604, "ELEMENT_SET_NO": 999, "REV_AT_EPOCH": 97801, "BSTAR": 0.00041740934, "MEAN_MOTION_DOT": 1.149e-05, "MEAN_MOTION_DDOT": 0}, "tle": {"line1": "1 30604U 99025AMK 25344.07409090  .00001149  00000+0  41741-3 0  9999", "line2": "2 30604  98.4026  19.0287 0209855  14.6644  39.2540 14.23602779978014"}}, "geometry": {"type": "Point", "coordinates": [21.382144107467187, -10.429023736915884]}}, {"type": "Feature", "properties": {"norad_id": 30606, "name": "FENGYUN 1C DEB", "group": "fengyun-1c-debris", "lat": 63.00348261326387, "lon": -168.66334666714567, "alt_km": 559.071565034028, "timestamp": "2025-12-10T21:43:22.365474+00:00", "meta": {"OBJECT_NAME": "FENGYUN 1C DEB", "OBJECT_ID": "1999-025AMM", "EPOCH": "2025-12-10T12:00:11.738304", "MEAN_MOTION": 14.57606061, "ECCENTRICITY": 0.02141581, "INCLINATION": 98.0963, "RA_OF_ASC_NODE": 354.7169, "ARG_OF_PERICENTER": 144.1203, "MEAN_ANOMALY": 8.9259, "EPHEMERIS_TYPE": 0, "CLASSIFICATION_TYPE": "U", "NORAD_CAT_ID": 30606, "ELEMENT_SET_NO": 999, "REV_AT_EPOCH": 99209, "BSTAR": 0.00074193465, "MEAN_MOTION_DOT": 4.584e-05, "MEAN_MOTION_DDOT": 0}, "tle": {"line1": "1 30606U 99025AMM 25344.50013586  .00004584  00000+0  74193-3 0  9993", "line2": "2 30606  98.0963 354.7169 0214158 144.1203   8.9259 14.57606061992091"}}, "geometry": {"type": "Point", "coordinates": [-168.66334666714567, 63.00348261326387]}}, {"type": "Feature", "properties": {"norad_id": 30608, "name": "FENGYUN 1C DEB", "group": "fengyun-1c-debris", "lat": 35.821639544460595, "lon": 41.21917868048883, "alt_km": 804.0608234512092, "timestamp": "2025-12-10T21:43:22.365484+00:00", "meta": {"OBJECT_NAME": "FENGYUN 1C DEB", "OBJECT_ID": "1999-025AMP", "EPOCH": "2025-12-10T15:32:43.089216", "MEAN_MOTION": 14.28457304, "ECCENTRICITY": 0.00159414, "INCLINATION": 98.7102, "RA_OF_ASC_NODE": 47.3153, "ARG_OF_PERICENTER": 184.9756, "MEAN_ANOMALY": 328.6074, "EPHEMERIS_TYPE": 0, "CLASSIFICATION_TYPE": "U", "NORAD_CAT_ID": 30608, "ELEMENT_SET_NO": 999, "REV_AT_EPOCH": 97409, "BSTAR": 0.0017488626, "MEAN_MOTION_DOT": 4.341e-05, "MEAN_MOTION_DDOT": 0}, "tle": {"line1": "1 30608U 99025AMP 25344.64772094  .00004341  00000+0  17489-2 0  9991", "line2": "2 30608  98.7102  47.3153 0015941 184.9756 328.6074 14.28457304974096"}}, "geometry": {"type": "Point", "coordinates": [41.21917868048883, 35.821639544460595]}}, {"type": "Feature", "properties": {"norad_id": 30609, "name": "FENGYUN 1C DEB", "group": "fengyun-1c-debris", "lat": 38.8412063528546, "lon": -105.36892366879812, "alt_km": 770.6441290242274, "timestamp": "2025-12-10T21:43:22.365494+00:00", "meta": {"OBJECT_NAME": "FENGYUN 1C DEB", "OBJECT_ID": "1999-025AMQ", "EPOCH": "2025-12-06T17:08:31.037568", "MEAN_MOTION": 14.11134801, "ECCENTRICITY": 0.01189523, "INCLINATION": 98.5675, "RA_OF_ASC_NODE": 257.6035, "ARG_OF_PERICENTER": 69.9172, "MEAN_ANOMALY": 291.4756, "EPHEMERIS_TYPE": 0, "CLASSIFICATION_TYPE": "U", "NORAD_CAT_ID": 30609, "ELEMENT_SET_NO": 999, "REV_AT_EPOCH": 95643, "BSTAR": 0.0036904109, "MEAN_MOTION_DOT": 7.069e-05, "MEAN_MOTION_DDOT": 0}, "tle": {"line1": "1 30609U 99025AMQ 25340.71424812  .00007069  00000+0  36904-2 0  9991", "line2": "2 30609  98.5675 257.6035 0118952  69.9172 291.4756 14.11134801956433"}}, "geometry": {"type": "Point", "coordinates": [-105.36892366879812, 38.8412063528546]}}]}